UMBRA-07                
1 58297U 23174AT  26201.71573661  .00005363  00000+0  33678-3 0  9991
2 58297  97.3769 256.2177 0001637 351.8448   8.2754 15.09671925148479
UMBRA-09                
1 60541U 24149CB  26201.93730925  .00011630  00000+0  55942-3 0  9993
2 60541  97.6961 289.7434 0002192 190.7346 169.3841 15.18956657105840
UMBRA-10                
1 60547U 24149CH  26201.93685891  .00011599  00000+0  55799-3 0  9994
2 60547  97.6966 289.7735 0002004 157.4224 202.7098 15.18953069105853
UMBRA-11                
1 66748U 25276CL  26201.93095041  .00015161  00000+0  55850-3 0  9994
2 66748  97.4178 276.3800 0003212 170.1229 190.0074 15.27919533 35649
UMBRA-12                
1 67371U 26004J   26201.42860141  .00002363  00000+0  25343-3 0  9996
2 67371  97.8032 199.7446 0007047  38.8610 321.3113 14.89557569 28259
